STARLINK-36353          
1 67820U 26032Z   26074.50949554  .00120693  00000+0  79725-3 0  9999
2 67820  97.2839 261.3430 0001417 117.7838 242.3571 15.75230989  5705
STARLINK-36644          
1 67821U 26033A   26074.58335648 -.01966169  00000+0 -22185-1 0  9997
2 67821  42.9992 235.7245 0001670 267.3599  66.4981 15.64874189  5613
STARLINK-36643          
1 67822U 26033B   26074.58335648 -.01911810  00000+0 -25802-1 0  9990
2 67822  42.9986 235.9058 0001353 263.6141 357.5168 15.60253946  5610
STARLINK-36646          
1 67823U 26033C   26074.58335648 -.01941376  00000+0 -23278-1 0  9996
2 67823  42.9993 235.7621 0001634 268.0591  50.4262 15.63314307  5619
STARLINK-36647          
1 67824U 26033D   26074.58335648 -.01944556  00000+0 -25117-1 0  9994
2 67824  42.9992 235.8304 0001649 267.2451  23.6618 15.61434880  5614
STARLINK-36648          
1 67825U 26033E   26074.58335648 -.01981545  00000+0 -16744-1 0  9990
2 67825  42.9995 235.4767 0001505 276.5357 156.5897 15.71857793  5614
STARLINK-35865          
1 67826U 26033F   26074.58335648 -.01970098  00000+0 -21822-1 0  9995
2 67826  42.9995 235.6533 0001755 273.2218  88.7093 15.65338498  5618
STARLINK-36289          
1 67827U 26033G   26074.58335648 -.01949123  00000+0 -25604-1 0  9993
2 67827  42.9993 235.8171 0001590 267.3996  28.7040 15.61013523  5612
STARLINK-36670          
1 67828U 26033H   26074.58335648 -.01941673  00000+0 -23683-1 0  9991
2 67828  42.9992 235.7251 0001636 268.8916  63.9463 15.62883984  5616
STARLINK-36144          
1 67829U 26033J   26074.58335648 -.01906137  00000+0 -24254-1 0  9993
2 67829  42.9994 235.7616 0001666 259.6938  58.4470 15.61750092  5618
STARLINK-36611          
1 67830U 26033K   26074.58335648 -.01930517  00000+0 -22572-1 0  9995
2 67830  42.9995 235.6623 0001777 267.1879  90.9453 15.63925308  5617
STARLINK-36661          
1 67831U 26033L   26074.58335648 -.01908929  00000+0 -27667-1 0  9998
2 67831  42.9988 235.8993 0001405 263.2434   0.0233 15.58396502  5614
