CCSDS_OMM_VERS = 2.0
CREATION_DATE  = 
ORIGINATOR     = 

OBJECT_NAME    = STARLINK-36353
OBJECT_ID      = 2026-032Z
CENTER_NAME    = EARTH
REF_FRAME      = TEME
TIME_SYSTEM    = UTC
MEAN_ELEMENT_THEORY = SGP/SGP4

EPOCH          = 2026-03-15T12:13:40.414656
MEAN_MOTION    = 15.75230989
ECCENTRICITY   = .00014179
INCLINATION    = 97.2839
RA_OF_ASC_NODE = 261.3430
ARG_OF_PERICENTER = 117.7838
MEAN_ANOMALY   = 242.3571

EPHEMERIS_TYPE = 0
CLASSIFICATION_TYPE = U
NORAD_CAT_ID   = 67820
ELEMENT_SET_NO = 999
REV_AT_EPOCH   = 570
BSTAR          = .79724787E-3
MEAN_MOTION_DOT = .120693E-2
MEAN_MOTION_DDOT = 0

CCSDS_OMM_VERS = 2.0
CREATION_DATE  = 
ORIGINATOR     = 

OBJECT_NAME    = STARLINK-36644
OBJECT_ID      = 2026-033A
CENTER_NAME    = EARTH
REF_FRAME      = TEME
TIME_SYSTEM    = UTC
MEAN_ELEMENT_THEORY = SGP/SGP4

EPOCH          = 2026-03-15T14:00:01.999872
MEAN_MOTION    = 15.64874189
ECCENTRICITY   = .00016707
INCLINATION    = 42.9992
RA_OF_ASC_NODE = 235.7245
ARG_OF_PERICENTER = 267.3599
MEAN_ANOMALY   = 66.4981

EPHEMERIS_TYPE = 0
CLASSIFICATION_TYPE = U
NORAD_CAT_ID   = 67821
ELEMENT_SET_NO = 999
REV_AT_EPOCH   = 561
BSTAR          = -.22185222E-1
MEAN_MOTION_DOT = -.1966169E-1
MEAN_MOTION_DDOT = 0

CCSDS_OMM_VERS = 2.0
CREATION_DATE  = 
ORIGINATOR     = 

OBJECT_NAME    = STARLINK-36643
OBJECT_ID      = 2026-033B
CENTER_NAME    = EARTH
REF_FRAME      = TEME
TIME_SYSTEM    = UTC
MEAN_ELEMENT_THEORY = SGP/SGP4

EPOCH          = 2026-03-15T14:00:01.999872
MEAN_MOTION    = 15.60253946
ECCENTRICITY   = .00013534
INCLINATION    = 42.9986
RA_OF_ASC_NODE = 235.9058
ARG_OF_PERICENTER = 263.6141
MEAN_ANOMALY   = 357.5168

EPHEMERIS_TYPE = 0
CLASSIFICATION_TYPE = U
NORAD_CAT_ID   = 67822
ELEMENT_SET_NO = 999
REV_AT_EPOCH   = 561
BSTAR          = -.25801958E-1
MEAN_MOTION_DOT = -.191181E-1
MEAN_MOTION_DDOT = 0

CCSDS_OMM_VERS = 2.0
CREATION_DATE  = 
ORIGINATOR     = 

OBJECT_NAME    = STARLINK-36646
OBJECT_ID      = 2026-033C
CENTER_NAME    = EARTH
REF_FRAME      = TEME
TIME_SYSTEM    = UTC
MEAN_ELEMENT_THEORY = SGP/SGP4

EPOCH          = 2026-03-15T14:00:01.999872
MEAN_MOTION    = 15.63314307
ECCENTRICITY   = .00016345
INCLINATION    = 42.9993
RA_OF_ASC_NODE = 235.7621
ARG_OF_PERICENTER = 268.0591
MEAN_ANOMALY   = 50.4262

EPHEMERIS_TYPE = 0
CLASSIFICATION_TYPE = U
NORAD_CAT_ID   = 67823
ELEMENT_SET_NO = 999
REV_AT_EPOCH   = 561
BSTAR          = -.23278141E-1
MEAN_MOTION_DOT = -.1941376E-1
MEAN_MOTION_DDOT = 0

CCSDS_OMM_VERS = 2.0
CREATION_DATE  = 
ORIGINATOR     = 

OBJECT_NAME    = STARLINK-36647
OBJECT_ID      = 2026-033D
CENTER_NAME    = EARTH
REF_FRAME      = TEME
TIME_SYSTEM    = UTC
MEAN_ELEMENT_THEORY = SGP/SGP4

EPOCH          = 2026-03-15T14:00:01.999872
MEAN_MOTION    = 15.61434880
ECCENTRICITY   = .00016492
INCLINATION    = 42.9992
RA_OF_ASC_NODE = 235.8304
ARG_OF_PERICENTER = 267.2451
MEAN_ANOMALY   = 23.6618

EPHEMERIS_TYPE = 0
CLASSIFICATION_TYPE = U
NORAD_CAT_ID   = 67824
ELEMENT_SET_NO = 999
REV_AT_EPOCH   = 561
BSTAR          = -.25117469E-1
MEAN_MOTION_DOT = -.1944556E-1
MEAN_MOTION_DDOT = 0

CCSDS_OMM_VERS = 2.0
CREATION_DATE  = 
ORIGINATOR     = 

OBJECT_NAME    = STARLINK-36648
OBJECT_ID      = 2026-033E
CENTER_NAME    = EARTH
REF_FRAME      = TEME
TIME_SYSTEM    = UTC
MEAN_ELEMENT_THEORY = SGP/SGP4

EPOCH          = 2026-03-15T14:00:01.999872
MEAN_MOTION    = 15.71857793
ECCENTRICITY   = .00015056
INCLINATION    = 42.9995
RA_OF_ASC_NODE = 235.4767
ARG_OF_PERICENTER = 276.5357
MEAN_ANOMALY   = 156.5897

EPHEMERIS_TYPE = 0
CLASSIFICATION_TYPE = U
NORAD_CAT_ID   = 67825
ELEMENT_SET_NO = 999
REV_AT_EPOCH   = 561
BSTAR          = -.1674376E-1
MEAN_MOTION_DOT = -.1981545E-1
MEAN_MOTION_DDOT = 0

CCSDS_OMM_VERS = 2.0
CREATION_DATE  = 
ORIGINATOR     = 

OBJECT_NAME    = STARLINK-35865
OBJECT_ID      = 2026-033F
CENTER_NAME    = EARTH
REF_FRAME      = TEME
TIME_SYSTEM    = UTC
MEAN_ELEMENT_THEORY = SGP/SGP4

EPOCH          = 2026-03-15T14:00:01.999872
MEAN_MOTION    = 15.65338498
ECCENTRICITY   = .00017558
INCLINATION    = 42.9995
RA_OF_ASC_NODE = 235.6533
ARG_OF_PERICENTER = 273.2218
MEAN_ANOMALY   = 88.7093

EPHEMERIS_TYPE = 0
CLASSIFICATION_TYPE = U
NORAD_CAT_ID   = 67826
ELEMENT_SET_NO = 999
REV_AT_EPOCH   = 561
BSTAR          = -.21821547E-1
MEAN_MOTION_DOT = -.1970098E-1
MEAN_MOTION_DDOT = 0

CCSDS_OMM_VERS = 2.0
CREATION_DATE  = 
ORIGINATOR     = 

OBJECT_NAME    = STARLINK-36289
OBJECT_ID      = 2026-033G
CENTER_NAME    = EARTH
REF_FRAME      = TEME
TIME_SYSTEM    = UTC
MEAN_ELEMENT_THEORY = SGP/SGP4

EPOCH          = 2026-03-15T14:00:01.999872
MEAN_MOTION    = 15.61013523
ECCENTRICITY   = .00015904
INCLINATION    = 42.9993
RA_OF_ASC_NODE = 235.8171
ARG_OF_PERICENTER = 267.3996
MEAN_ANOMALY   = 28.7040

EPHEMERIS_TYPE = 0
CLASSIFICATION_TYPE = U
NORAD_CAT_ID   = 67827
ELEMENT_SET_NO = 999
REV_AT_EPOCH   = 561
BSTAR          = -.25603568E-1
MEAN_MOTION_DOT = -.1949123E-1
MEAN_MOTION_DDOT = 0

CCSDS_OMM_VERS = 2.0
CREATION_DATE  = 
ORIGINATOR     = 

OBJECT_NAME    = STARLINK-36670
OBJECT_ID      = 2026-033H
CENTER_NAME    = EARTH
REF_FRAME      = TEME
TIME_SYSTEM    = UTC
MEAN_ELEMENT_THEORY = SGP/SGP4

EPOCH          = 2026-03-15T14:00:01.999872
MEAN_MOTION    = 15.62883984
ECCENTRICITY   = .00016369
INCLINATION    = 42.9992
RA_OF_ASC_NODE = 235.7251
ARG_OF_PERICENTER = 268.8916
MEAN_ANOMALY   = 63.9463

EPHEMERIS_TYPE = 0
CLASSIFICATION_TYPE = U
NORAD_CAT_ID   = 67828
ELEMENT_SET_NO = 999
REV_AT_EPOCH   = 561
BSTAR          = -.2368349E-1
MEAN_MOTION_DOT = -.1941673E-1
MEAN_MOTION_DDOT = 0

CCSDS_OMM_VERS = 2.0
CREATION_DATE  = 
ORIGINATOR     = 

OBJECT_NAME    = STARLINK-36144
OBJECT_ID      = 2026-033J
CENTER_NAME    = EARTH
REF_FRAME      = TEME
TIME_SYSTEM    = UTC
MEAN_ELEMENT_THEORY = SGP/SGP4

EPOCH          = 2026-03-15T14:00:01.999872
MEAN_MOTION    = 15.61750092
ECCENTRICITY   = .00016665
INCLINATION    = 42.9994
RA_OF_ASC_NODE = 235.7616
ARG_OF_PERICENTER = 259.6938
MEAN_ANOMALY   = 58.4470

EPHEMERIS_TYPE = 0
CLASSIFICATION_TYPE = U
NORAD_CAT_ID   = 67829
ELEMENT_SET_NO = 999
REV_AT_EPOCH   = 561
BSTAR          = -.24253706E-1
MEAN_MOTION_DOT = -.1906137E-1
MEAN_MOTION_DDOT = 0

CCSDS_OMM_VERS = 2.0
CREATION_DATE  = 
ORIGINATOR     = 

OBJECT_NAME    = STARLINK-36611
OBJECT_ID      = 2026-033K
CENTER_NAME    = EARTH
REF_FRAME      = TEME
TIME_SYSTEM    = UTC
MEAN_ELEMENT_THEORY = SGP/SGP4

EPOCH          = 2026-03-15T14:00:01.999872
MEAN_MOTION    = 15.63925308
ECCENTRICITY   = .00017776
INCLINATION    = 42.9995
RA_OF_ASC_NODE = 235.6623
ARG_OF_PERICENTER = 267.1879
MEAN_ANOMALY   = 90.9453

EPHEMERIS_TYPE = 0
CLASSIFICATION_TYPE = U
NORAD_CAT_ID   = 67830
ELEMENT_SET_NO = 999
REV_AT_EPOCH   = 561
BSTAR          = -.22572292E-1
MEAN_MOTION_DOT = -.1930517E-1
MEAN_MOTION_DDOT = 0

CCSDS_OMM_VERS = 2.0
CREATION_DATE  = 
ORIGINATOR     = 

OBJECT_NAME    = STARLINK-36661
OBJECT_ID      = 2026-033L
CENTER_NAME    = EARTH
REF_FRAME      = TEME
TIME_SYSTEM    = UTC
MEAN_ELEMENT_THEORY = SGP/SGP4

EPOCH          = 2026-03-15T14:00:01.999872
MEAN_MOTION    = 15.58396502
ECCENTRICITY   = .00014051
INCLINATION    = 42.9988
RA_OF_ASC_NODE = 235.8993
ARG_OF_PERICENTER = 263.2434
MEAN_ANOMALY   = 0.0233

EPHEMERIS_TYPE = 0
CLASSIFICATION_TYPE = U
NORAD_CAT_ID   = 67831
ELEMENT_SET_NO = 999
REV_AT_EPOCH   = 561
BSTAR          = -.27666757E-1
MEAN_MOTION_DOT = -.1908929E-1
MEAN_MOTION_DDOT = 0

